[
    {
        "CCSDS_OMM_VERS": null,
        "CREATION_DATE": null,
        "ORIGINATOR": null,
        "OBJECT_NAME": null,
        "OBJECT_ID": "1998-070A",
        "CENTER_NAME": null,
        "REF_FRAME": null,
        "REF_FRAME_EPOCH": null,
        "TIME_SYSTEM": null,
        "MEAN_ELEMENT_THEORY": null,
        "COMMENT": null,
        "EPOCH": "2020-05-06T04:52:54.513Z",
        "SEMI_MAJOR_AXIS": null,
        "MEAN_MOTION": 0.98719829,
        "ECCENTRICITY": 0.0008441,
        "INCLINATION": 5.3476,
        "RA_OF_ASC_NODE": 68.9522,
        "ARG_OF_PERICENTER": 339.6173,
        "MEAN_ANOMALY": 170.6318,
        "GM": null,
        "MASS": null,
        "SOLAR_RAD_AREA": null,
        "SOLAR_RAD_COEFF": null,
        "DRAG_AREA": null,
        "DRAG_COEFF": null,
        "EPHEMERIS_TYPE": 0,
        "CLASSIFICATION_TYPE": "U",
        "NORAD_CAT_ID": 25558,
        "ELEMENT_SET_NO": 999,
        "REV_AT_EPOCH": 7842,
        "BSTAR": 0,
        "MEAN_MOTION_DOT": -0.00000066,
        "MEAN_MOTION_DDOT": 0,
        "COV_REF_FRAME": null,
        "CX_X": null,
        "CY_X": null,
        "CY_Y": null,
        "CZ_X": null,
        "CZ_Y": null,
        "CZ_Z": null,
        "CX_DOT_X": null,
        "CX_DOT_Y": null,
        "CX_DOT_Z": null,
        "CX_DOT_X_DOT": null,
        "CY_DOT_X": null,
        "CY_DOT_Y": null,
        "CY_DOT_Z": null,
        "CY_DOT_X_DOT": null,
        "CY_DOT_Y_DOT": null,
        "CZ_DOT_X": null,
        "CZ_DOT_Y": null,
        "CZ_DOT_Z": null,
        "CZ_DOT_X_DOT": null,
        "CZ_DOT_Y_DOT": null,
        "CZ_DOT_Z_DOT": null,
        "USER_DEFINED_BIP_0044_TYPE": null,
        "USER_DEFINED_OBJECT_DESIGNATOR": null,
        "USER_DEFINED_EARTH_MODEL": null,
        "USER_DEFINED_EPOCH_TIMESTAMP": null,
        "USER_DEFINED_MICROSECONDS": null
    },
    {
        "CCSDS_OMM_VERS": null,
        "CREATION_DATE": null,
        "ORIGINATOR": null,
        "OBJECT_NAME": null,
        "OBJECT_ID": "1998-071A",
        "CENTER_NAME": null,
        "REF_FRAME": null,
        "REF_FRAME_EPOCH": null,
        "TIME_SYSTEM": null,
        "MEAN_ELEMENT_THEORY": null,
        "COMMENT": null,
        "EPOCH": "2020-05-05T17:39:35.636Z",
        "SEMI_MAJOR_AXIS": null,
        "MEAN_MOTION": 14.93863111,
        "ECCENTRICITY": 0.0006123,
        "INCLINATION": 69.897,
        "RA_OF_ASC_NODE": 131.1268,
        "ARG_OF_PERICENTER": 23.6237,
        "MEAN_ANOMALY": 336.5199,
        "GM": null,
        "MASS": null,
        "SOLAR_RAD_AREA": null,
        "SOLAR_RAD_COEFF": null,
        "DRAG_AREA": null,
        "DRAG_COEFF": null,
        "EPHEMERIS_TYPE": 0,
        "CLASSIFICATION_TYPE": "U",
        "NORAD_CAT_ID": 25560,
        "ELEMENT_SET_NO": 999,
        "REV_AT_EPOCH": 16286,
        "BSTAR": 0.000014598,
        "MEAN_MOTION_DOT": 0.00000065,
        "MEAN_MOTION_DDOT": 0,
        "COV_REF_FRAME": null,
        "CX_X": null,
        "CY_X": null,
        "CY_Y": null,
        "CZ_X": null,
        "CZ_Y": null,
        "CZ_Z": null,
        "CX_DOT_X": null,
        "CX_DOT_Y": null,
        "CX_DOT_Z": null,
        "CX_DOT_X_DOT": null,
        "CY_DOT_X": null,
        "CY_DOT_Y": null,
        "CY_DOT_Z": null,
        "CY_DOT_X_DOT": null,
        "CY_DOT_Y_DOT": null,
        "CZ_DOT_X": null,
        "CZ_DOT_Y": null,
        "CZ_DOT_Z": null,
        "CZ_DOT_X_DOT": null,
        "CZ_DOT_Y_DOT": null,
        "CZ_DOT_Z_DOT": null,
        "USER_DEFINED_BIP_0044_TYPE": null,
        "USER_DEFINED_OBJECT_DESIGNATOR": null,
        "USER_DEFINED_EARTH_MODEL": null,
        "USER_DEFINED_EPOCH_TIMESTAMP": null,
        "USER_DEFINED_MICROSECONDS": null
    }
]