1 25558U 98070A   20127.20340872 -.00000066  00000-0  00000+0 0  9999
2 25558   5.3476  68.9522 0008441 339.6173 170.6318  0.98719829 78423
1 25560U 98071A   20126.73582913  .00000065  00000-0  14598-4 0  9994
2 25560  69.8970 131.1268 0006123  23.6237 336.5199 14.93863111162862
